{
  "norad_id": 55939,
  "name": "STARLINK-5918",
  "history": [
    {
      "epoch": "2026-03-28T19:13:20.679456Z",
      "apogee_km": 574.1249778791062,
      "perigee_km": 569.9789121658414,
      "latitude_deg": 6.286402645233833e-05,
      "longitude_deg": 121.6837861013551,
      "height_km": 574.4236099555671,
      "semi_major_axis_km": 6950.1889450224735,
      "eccentricity": 0.00029827,
      "inclination_deg": 70.0,
      "raan_deg": 236.2361,
      "arg_perigee_deg": 271.5413,
      "mean_anomaly_deg": 88.5405,
      "mean_motion_rev_day": 14.98331276
    }
  ]
}